NORAD_CAT_ID,OBJECT_NAME,OBJECT_TYPE,EPOCH,MEAN_MOTION,ECCENTRICITY,INCLINATION,RA_OF_ASC_NODE,ARG_OF_PERICENTER,MEAN_ANOMALY,BSTAR,MEAN_MOTION_DOT,MEAN_MOTION_DDOT,TLE_LINE0,TLE_LINE1,TLE_LINE2,SEMIMAJOR_AXIS,PERIOD,APOGEE,PERIGEE,DECAYED
49154.0,STARLINK-3068,PAYLOAD,2022-12-23 10:08:43,14.98330778,0.0003112,70.0002,350.1482,247.1944,112.8887,0.00010559,1.167e-05,0.0,0 STARLINK-3068,1 49154U 21082AA  22357.42272254  .00001167  00000-0  10559-3 0  9991,2 49154  70.0002 350.1482 0003112 247.1944 112.8887 14.98330778 71952,6950.19,96.107,574.2180000000002,569.893,0.0
49154.0,STARLINK-3068,PAYLOAD,2022-12-24 02:10:02,14.98343845,0.0003095,70.0002,348.4649,246.7951,113.2882,0.00012461,1.395e-05,0.0,0 STARLINK-3068,1 49154U 21082AA  22358.09031110  .00001395  00000-0  12461-3 0  9996,2 49154  70.0002 348.4649 0003095 246.7951 113.2882 14.98343845 72051,6950.15,96.106,574.1659999999998,569.864,0.0
49154.0,STARLINK-3068,PAYLOAD,2022-12-24 10:10:43,14.98340202,0.0003216,70.0004,347.6253,246.7001,113.382,7.1363e-05,7.59e-06,0.0,0 STARLINK-3068,1 49154U 21082AA  22358.42411280  .00000759  00000-0  71363-4 0  9993,2 49154  70.0004 347.6253 0003216 246.7001 113.3820 14.98340202 72109,6950.161,96.106,574.262,569.7909999999998,0.0
49154.0,STARLINK-3068,PAYLOAD,2022-12-24 16:35:15,14.98338934,0.00031,70.0005,346.9514,244.3181,115.7658,-0.00014752,-1.853e-05,0.0,0 STARLINK-3068,1 49154U 21082AA  22358.69115629 -.00001853  00000-0 -14752-3 0  9996,2 49154  70.0005 346.9514 0003100 244.3181 115.7658 14.98338934 72145,6950.165,96.106,574.185,569.876,0.0
49154.0,STARLINK-3068,PAYLOAD,2022-12-25 07:00:28,14.98335387,0.0003205,70.0001,345.4347,248.5799,111.5018,0.00012003,1.34e-05,0.0,0 STARLINK-3068,1 49154U 21082AA  22359.29199100  .00001340  00000-0  12003-3 0  9995,2 49154  70.0001 345.4347 0003205 248.5799 111.5018 14.98335387 72239,6950.176,96.107,574.269,569.814,0.0
49154.0,STARLINK-3068,PAYLOAD,2022-12-25 16:37:17,14.98309981,0.0002753,70.0,344.4248,252.1343,107.9516,0.00020441,2.346e-05,0.0,0 STARLINK-3068,1 49154U 21082AA  22359.69256815  .00002346  00000-0  20441-3 0  9998,2 49154  70.0000 344.4248 0002753 252.1343 107.9516 14.98309981 72299,6950.255,96.108,574.033,570.206,0.0
49154.0,STARLINK-3068,PAYLOAD,2022-12-26 05:26:21,14.9833467,0.0002951,70.0005,343.0781,244.2154,115.87,-2.2419e-06,-1.2e-06,0.0,0 STARLINK-3068,1 49154U 21082AA  22360.22663487 -.00000120  00000-0 -22419-5 0  9995,2 49154  70.0005 343.0781 0002951 244.2154 115.8700 14.98334670 72378,6950.178000000001,96.107,574.094,569.992,0.0
49154.0,STARLINK-3068,PAYLOAD,2022-12-26 07:02:30,14.98315114,0.0002855,70.0012,342.9115,245.7802,114.3059,-0.00020698,-2.561e-05,0.0,0 STARLINK-3068,1 49154U 21082AA  22360.29341138 -.00002561  00000-0 -20698-3 0  9994,2 49154  70.0012 342.9115 0002855 245.7802 114.3059 14.98315114 72388,6950.239000000001,96.108,574.0880000000002,570.12,0.0
49154.0,STARLINK-3068,PAYLOAD,2022-12-26 08:38:37,14.98332535,0.0003153,70.0007,342.74300000000005,248.7378,111.3444,-1.9842e-05,-3.3e-06,0.0,0 STARLINK-3068,1 49154U 21082AA  22360.36015679 -.00000330  00000-0 -19842-4 0  9992,2 49154  70.0007 342.7430 0003153 248.7378 111.3444 14.98332535 72395,6950.185,96.107,574.241,569.859,0.0
49154.0,STARLINK-3068,PAYLOAD,2022-12-26 23:03:49,14.9833668,0.000314,70.0007,341.2273,249.8383,110.2438,0.00011439,1.272e-05,0.0,0 STARLINK-3068,1 49154U 21082AA  22360.96099098  .00001272  00000-0  11439-3 0  9992,2 49154  70.0007 341.2273 0003140 249.8383 110.2438 14.98336680 72484,6950.172,96.107,574.22,569.855,0.0
49154.0,STARLINK-3068,PAYLOAD,2022-12-27 05:28:21,14.98339347,0.0002654,70.0021,340.5545,233.7565,126.335,0.00023321,2.691e-05,0.0,0 STARLINK-3068,1 49154U 21082AA  22361.22802582  .00002691  00000-0  23321-3 0  9991,2 49154  70.0021 340.5545 0002654 233.7565 126.3350 14.98339347 72526,6950.1640000000025,96.106,573.874,570.184,0.0
49154.0,STARLINK-3068,PAYLOAD,2022-12-27 16:41:17,14.98359193,0.0002875,70.0003,339.3751,260.9952,99.0882,-0.00011809,-1.503e-05,0.0,0 STARLINK-3068,1 49154U 21082AA  22361.69533675 -.00001503  00000-0 -11809-3 0  9997,2 49154  70.0003 339.3751 0002875 260.9952  99.0882 14.98359193 72592,6950.103,96.105,573.966,569.969,0.0
49154.0,STARLINK-3068,PAYLOAD,2022-12-27 23:05:49,14.98339058,0.0003164,70.0007,338.7019,248.6617,111.4204,0.00022362,2.577e-05,0.0,0 STARLINK-3068,1 49154U 21082AA  22361.96238345  .00002577  00000-0  22362-3 0  9999,2 49154  70.0007 338.7019 0003164 248.6617 111.4204 14.98339058 72639,6950.165,96.106,574.229,569.831,0.0
49154.0,STARLINK-3068,PAYLOAD,2022-12-28 00:41:57,14.98340054,0.0002993999999999,70.0012,338.5338,249.2619,110.8219,0.00019152,2.194e-05,0.0,0 STARLINK-3068,1 49154U 21082AA  22362.02914273  .00002194  00000-0  19152-3 0  9996,2 49154  70.0012 338.5338 0002994 249.2619 110.8219 14.98340054 72644,6950.1619999999975,96.106,574.1080000000002,569.946,0.0
49154.0,STARLINK-3068,PAYLOAD,2022-12-29 08:44:39,14.98332868,0.0002601,70.0019,335.1685,256.2212,103.8658,1.1443e-06,-7.9e-07,0.0,0 STARLINK-3068,1 49154U 21082AA  22363.36435115 -.00000079  00000-0  11443-5 0  9995,2 49154  70.0019 335.1685 0002601 256.2212 103.8658 14.98332868 72846,6950.184,96.107,573.857,570.241,0.0
49154.0,STARLINK-3068,PAYLOAD,2022-12-30 08:46:40,14.98334958,0.0003018,70.001,332.6421,247.1302,112.9539,6.924399999999999e-05,7.33e-06,0.0,0 STARLINK-3068,1 49154U 21082AA  22364.36574740  .00000733  00000-0  69244-4 0  9991,2 49154  70.0010 332.6421 0003018 247.1302 112.9539 14.98334958 72996,6950.178000000001,96.107,574.14,569.945,0.0
49154.0,STARLINK-3068,PAYLOAD,2022-12-31 00:48:00,14.98344473,0.0003213,70.0003,330.9586,248.5887,111.4929,0.00041904,4.912e-05,0.0,0 STARLINK-3068,1 49154U 21082AA  22365.03333425  .00004912  00000-0  41904-3 0  9994,2 49154  70.0003 330.9586 0003213 248.5887 111.4929 14.98344473 73093,6950.148,96.106,574.246,569.78,0.0
49154.0,STARLINK-3068,PAYLOAD,2022-12-31 07:12:32,14.98344864,0.0003383,70.0018,330.2856,250.1872,109.8922,0.00048985,5.759e-05,0.0,0 STARLINK-3068,1 49154U 21082AA  22365.30037946  .00005759  00000-0  48985-3 0  9999,2 49154  70.0018 330.2856 0003383 250.1872 109.8922 14.98344864 73136,6950.147,96.106,574.363,569.661,0.0
49154.0,STARLINK-3068,PAYLOAD,2023-01-01 00:50:01,14.98341613,0.0003278,70.0019,328.4338,248.4129,111.668,0.00014137,1.595e-05,0.0,0 STARLINK-3068,1 49154U 21082AA  23001.03473584  .00001595  00000-0  14137-3 0  9995,2 49154  70.0019 328.4338 0003278 248.4129 111.6680 14.98341613 73242,6950.156999999997,96.106,574.3,569.744,0.0
49154.0,STARLINK-3068,PAYLOAD,2023-01-01 07:14:33,14.98332137,0.0003304,70.002,327.7605,250.3129,109.7674,-0.00010347,-1.327e-05,0.0,0 STARLINK-3068,1 49154U 21082AA  23001.30177863 -.00001327  00000-0 -10347-3 0  9990,2 49154  70.0020 327.7605 0003304 250.3129 109.7674 14.98332137 73281,6950.186,96.107,574.3480000000002,569.755,0.0
49154.0,STARLINK-3068,PAYLOAD,2023-01-01 15:15:14,14.98317713,0.000315,70.0025,326.9196,249.4205,110.6616,-0.00045817,-5.554e-05,0.0,0 STARLINK-3068,1 49154U 21082AA  23001.63558400 -.00005554  00000-0 -45817-3 0  9992,2 49154  70.0025 326.9196 0003150 249.4205 110.6616 14.98317713 73331,6950.231,96.108,574.285,569.9069999999998,0.0
49154.0,STARLINK-3068,PAYLOAD,2023-01-02 07:16:35,14.98322046,0.0003173,70.0026,325.2358,246.7388,113.3437,-2.4687e-05,-3.87e-06,0.0,0 STARLINK-3068,1 49154U 21082AA  23002.30318935 -.00000387  00000-0 -24687-4 0  9996,2 49154  70.0026 325.2358 0003173 246.7388 113.3437 14.98322046 73438,6950.217,96.108,574.288,569.877,0.0
49154.0,STARLINK-3068,PAYLOAD,2023-01-02 15:17:16,14.98325314,0.0003308,70.0024,324.3944,246.7599,113.3212,0.0002076,2.385e-05,0.0,0 STARLINK-3068,1 49154U 21082AA  23002.63699179  .00002385  00000-0  20760-3 0  9999,2 49154  70.0024 324.3944 0003308 246.7599 113.3212 14.98325314 73488,6950.206999999999,96.107,574.372,569.773,0.0
49154.0,STARLINK-3068,PAYLOAD,2023-01-02 21:41:48,14.98328596,0.0003396999999999,70.0021,323.721,249.3159,110.7636,0.00049722,5.845e-05,0.0,0 STARLINK-3068,1 49154U 21082AA  23002.90403250  .00005845  00000-0  49722-3 0  9995,2 49154  70.0021 323.7210 0003397 249.3159 110.7636 14.98328596 73524,6950.196999999999,96.107,574.423,569.701,0.0
49154.0,STARLINK-3068,PAYLOAD,2023-01-03 07:18:36,14.98341708,0.0003449,70.0022,322.7109,249.2216,110.8574,0.00093328,0.00011064,0.0,0 STARLINK-3068,1 49154U 21082AA  23003.30459108  .00011064  00000-0  93328-3 0  9994,2 49154  70.0022 322.7109 0003449 249.2216 110.8574 14.98341708 73580,6950.156999999997,96.106,574.419,569.625,0.0
49154.0,STARLINK-3068,PAYLOAD,2023-01-03 20:07:41,14.98338507,0.0003418999999999,70.0022,321.3643,248.9677,111.1117,0.00038778,4.538e-05,0.0,0 STARLINK-3068,1 49154U 21082AA  23003.83866997  .00004538  00000-0  38778-3 0  9996,2 49154  70.0022 321.3643 0003419 248.9677 111.1117 14.98338507 73661,6950.167,96.106,574.408,569.655,0.0
49154.0,STARLINK-3068,PAYLOAD,2023-01-04 13:45:09,14.98337049,0.0003245,70.0024,319.5126,248.7286,111.3526,0.00016508,1.878e-05,0.0,0 STARLINK-3068,1 49154U 21082AA  23004.57302786  .00001878  00000-0  16508-3 0  9990,2 49154  70.0024 319.5126 0003245 248.7286 111.3526 14.98337049 73777,6950.170999999999,96.107,574.2909999999998,569.781,0.0
49154.0,STARLINK-3068,PAYLOAD,2023-01-04 20:09:41,14.98344388,0.0003328,70.0022,318.8392,247.9312,112.1494,0.00036625,4.281e-05,0.0,0 STARLINK-3068,1 49154U 21082AA  23004.84006453  .00004281  00000-0  36625-3 0  9995,2 49154  70.0022 318.8392 0003328 247.9312 112.1494 14.98344388 73817,6950.148,96.106,574.326,569.7,0.0
49154.0,STARLINK-3068,PAYLOAD,2023-01-05 13:47:09,14.98357543,0.0003275,70.0024,316.9876,248.5415,111.5395,0.00059649,7.037e-05,0.0,0 STARLINK-3068,1 49154U 21082AA  23005.57441252  .00007037  00000-0  59649-3 0  9999,2 49154  70.0024 316.9876 0003275 248.5415 111.5395 14.98357543 73929,6950.108,96.105,574.249,569.697,0.0
